start=new Date('2021-10-05T00:00:00.000Z').valueOf();
sats=[{"INCLINATION":"70.0027","OBJECT_ID":"2021-082AQ","SITE":"AFWTR","EPHEMERIS_TYPE":"0","TLE_LINE1":"1 49168U 21082AQ  21277.91667824  .00035938  00000-0  30149-3 0  9991","CENTER_NAME":"EARTH","ELEMENT_SET_NO":"999","EPOCH":"2021-10-04T22:00:00.999936","OBJECT_NAME":"STARLINK-3101","DECAY_DATE":null,"MEAN_ANOMALY":"246.9263","BSTAR":"0.00030149000000","FILE":"3144543","COUNTRY_CODE":"US","REF_FRAME":"TEME","RA_OF_ASC_NODE":"68.3617","CLASSIFICATION_TYPE":"U","MEAN_MOTION":"15.69751897","ARG_OF_PERICENTER":"280.1565","MEAN_MOTION_DDOT":"0.0000000000000","OBJECT_TYPE":"PAYLOAD","REV_AT_EPOCH":"457","MEAN_ELEMENT_THEORY":"SGP4","TLE_LINE2":"2 49168  70.0027  68.3617 0003530 280.1565 246.9263 15.69751897  4571","PERIOD":"91.734","NORAD_CAT_ID":"49168","MEAN_MOTION_DOT":"0.00035938","GP_ID":"186197932","APOAPSIS":"361.987","TIME_SYSTEM":"UTC","ECCENTRICITY":"0.00035300","LAUNCH_DATE":"2021-09-14","PERIAPSIS":"357.230","RCS_SIZE":"LARGE","SEMIMAJOR_AXIS":"6737.744"},{"MEAN_ANOMALY":"242.1677","OBJECT_NAME":"STARLINK-3046","DECAY_DATE":null,"EPOCH":"2021-10-04T22:00:00.999936","COUNTRY_CODE":"US","FILE":"3144803","BSTAR":"0.00028117000000","TLE_LINE1":"1 49169U 21082AR  21277.91667824  .00033496  00000-0  28117-3 0  9991","SITE":"AFWTR","EPHEMERIS_TYPE":"0","OBJECT_ID":"2021-082AR","INCLINATION":"70.0010","ELEMENT_SET_NO":"999","CENTER_NAME":"EARTH","PERIAPSIS":"357.304","LAUNCH_DATE":"2021-09-14","ECCENTRICITY":"0.00034040","TIME_SYSTEM":"UTC","APOAPSIS":"361.891","SEMIMAJOR_AXIS":"6737.732","RCS_SIZE":"LARGE","OBJECT_TYPE":"PAYLOAD","MEAN_MOTION_DDOT":"0.0000000000000","ARG_OF_PERICENTER":"280.5673","MEAN_MOTION":"15.69755895","CLASSIFICATION_TYPE":"U","RA_OF_ASC_NODE":"68.3658","REF_FRAME":"TEME","GP_ID":"186227645","MEAN_MOTION_DOT":"0.00033496","NORAD_CAT_ID":"49169","PERIOD":"91.734","TLE_LINE2":"2 49169  70.0010  68.3658 0003404 280.5673 242.1677 15.69755895  3627","MEAN_ELEMENT_THEORY":"SGP4","REV_AT_EPOCH":"362"},{"MEAN_MOTION":"15.69732897","ARG_OF_PERICENTER":"278.5911","CLASSIFICATION_TYPE":"U","RA_OF_ASC_NODE":"68.3543","REF_FRAME":"TEME","OBJECT_TYPE":"PAYLOAD","MEAN_MOTION_DDOT":"0.0000000000000","MEAN_ELEMENT_THEORY":"SGP4","REV_AT_EPOCH":"336","GP_ID":"186198830","MEAN_MOTION_DOT":"0.00033565","NORAD_CAT_ID":"49170","TLE_LINE2":"2 49170  70.0019  68.3543 0003704 278.5911 254.8188 15.69732897  3361","PERIOD":"91.735","TIME_SYSTEM":"UTC","APOAPSIS":"362.159","LAUNCH_DATE":"2021-09-14","PERIAPSIS":"357.168","ECCENTRICITY":"0.00037040","RCS_SIZE":"LARGE","SEMIMAJOR_AXIS":"6737.798","EPHEMERIS_TYPE":"0","SITE":"AFWTR","OBJECT_ID":"2021-082AS","INCLINATION":"70.0019","TLE_LINE1":"1 49170U 21082AS  21277.91667824  .00033565  00000-0  28199-3 0  9990","CENTER_NAME":"EARTH","ELEMENT_SET_NO":"999","EPOCH":"2021-10-04T22:00:00.999936","MEAN_ANOMALY":"254.8188","OBJECT_NAME":"STARLINK-3074","DECAY_DATE":null,"FILE":"3144569","BSTAR":"0.00028199000000","COUNTRY_CODE":"US"},{"MEAN_ANOMALY":"245.3137","DECAY_DATE":null,"OBJECT_NAME":"STARLINK-3107","EPOCH":"2021-10-04T22:00:00.999936","COUNTRY_CODE":"US","FILE":"3144574","BSTAR":"0.00030197000000","TLE_LINE1":"1 49171U 21082AT  21277.91667824  .00035979  00000-0  30197-3 0  9993","EPHEMERIS_TYPE":"0","SITE":"AFWTR","OBJECT_ID":"2021-082AT","INCLINATION":"70.0005","ELEMENT_SET_NO":"999","CENTER_NAME":"EARTH","PERIAPSIS":"357.370","LAUNCH_DATE":"2021-09-14","ECCENTRICITY":"0.00033660","TIME_SYSTEM":"UTC","APOAPSIS":"361.906","SEMIMAJOR_AXIS":"6737.773","RCS_SIZE":"LARGE","OBJECT_TYPE":"PAYLOAD","MEAN_MOTION_DDOT":"0.0000000000000","MEAN_MOTION":"15.69741801","ARG_OF_PERICENTER":"279.6318","CLASSIFICATION_TYPE":"U","RA_OF_ASC_NODE":"68.3646","REF_FRAME":"TEME","GP_ID":"186198926","MEAN_MOTION_DOT":"0.00035979","NORAD_CAT_ID":"49171","TLE_LINE2":"2 49171  70.0005  68.3646 0003366 279.6318 245.3137 15.69741801  4521","PERIOD":"91.735","MEAN_ELEMENT_THEORY":"SGP4","REV_AT_EPOCH":"452"},{"SEMIMAJOR_AXIS":"6737.744","RCS_SIZE":"LARGE","LAUNCH_DATE":"2021-09-14","PERIAPSIS":"357.103","ECCENTRICITY":"0.00037200","TIME_SYSTEM":"UTC","APOAPSIS":"362.116","MEAN_MOTION_DOT":"0.00032579","GP_ID":"186198984","PERIOD":"91.734","TLE_LINE2":"2 49172  70.0011  68.3508 0003720 277.9612 257.5809 15.69751677  3362","NORAD_CAT_ID":"49172","REV_AT_EPOCH":"336","MEAN_ELEMENT_THEORY":"SGP4","OBJECT_TYPE":"PAYLOAD","MEAN_MOTION_DDOT":"0.0000000000000","CLASSIFICATION_TYPE":"U","MEAN_MOTION":"15.69751677","ARG_OF_PERICENTER":"277.9612","REF_FRAME":"TEME","RA_OF_ASC_NODE":"68.3508","COUNTRY_CODE":"US","FILE":"3144578","BSTAR":"0.00027358000000","MEAN_ANOMALY":"257.5809","OBJECT_NAME":"STARLINK-3091","DECAY_DATE":null,"EPOCH":"2021-10-04T22:00:00.999936","ELEMENT_SET_NO":"999","CENTER_NAME":"EARTH","TLE_LINE1":"1 49172U 21082AU  21277.91667824  .00032579  00000-0  27358-3 0  9992","EPHEMERIS_TYPE":"0","SITE":"AFWTR","INCLINATION":"70.0011","OBJECT_ID":"2021-082AU"},{"INCLINATION":"69.9999","OBJECT_ID":"2021-082AV","SITE":"AFWTR","EPHEMERIS_TYPE":"0","TLE_LINE1":"1 49173U 21082AV  21277.91667824 -.00018644  00000-0 -15436-3 0  9996","CENTER_NAME":"EARTH","ELEMENT_SET_NO":"999","EPOCH":"2021-10-04T22:00:00.999936","OBJECT_NAME":"STARLINK-3045","DECAY_DATE":null,"MEAN_ANOMALY":"157.8666","BSTAR":"-0.00015436000000","FILE":"3144803","COUNTRY_CODE":"US","REF_FRAME":"TEME","RA_OF_ASC_NODE":"68.0405","CLASSIFICATION_TYPE":"U","ARG_OF_PERICENTER":"283.9308","MEAN_MOTION":"15.69810504","MEAN_MOTION_DDOT":"0.0000000000000","OBJECT_TYPE":"PAYLOAD","MEAN_ELEMENT_THEORY":"SGP4","REV_AT_EPOCH":"362","TLE_LINE2":"2 49173  69.9999  68.0405 0003140 283.9308 157.8666 15.69810504  3620","PERIOD":"91.731","NORAD_CAT_ID":"49173","MEAN_MOTION_DOT":"-0.00018644","GP_ID":"186227749","APOAPSIS":"361.557","TIME_SYSTEM":"UTC","PERIAPSIS":"357.326","LAUNCH_DATE":"2021-09-14","ECCENTRICITY":"0.00031400","RCS_SIZE":"LARGE","SEMIMAJOR_AXIS":"6737.576"},{"EPOCH":"2021-10-04T22:00:00.999936","DECAY_DATE":null,"OBJECT_NAME":"STARLINK-3047","MEAN_ANOMALY":"253.3563","BSTAR":"-0.00060340000000","FILE":"3144580","COUNTRY_CODE":"US","OBJECT_ID":"2021-082AW","INCLINATION":"70.0019","SITE":"AFWTR","EPHEMERIS_TYPE":"0","TLE_LINE1":"1 49174U 21082AW  21277.91667824 -.00071758  00000-0 -60340-3 0  9996","CENTER_NAME":"EARTH","ELEMENT_SET_NO":"999","APOAPSIS":"362.045","TIME_SYSTEM":"UTC","LAUNCH_DATE":"2021-09-14","PERIAPSIS":"356.955","ECCENTRICITY":"0.00037770","RCS_SIZE":"LARGE","SEMIMAJOR_AXIS":"6737.635","RA_OF_ASC_NODE":"68.3566","REF_FRAME":"TEME","MEAN_MOTION":"15.69789866","ARG_OF_PERICENTER":"278.0170","CLASSIFICATION_TYPE":"U","MEAN_MOTION_DDOT":"0.0000000000000","OBJECT_TYPE":"PAYLOAD","MEAN_ELEMENT_THEORY":"SGP4","REV_AT_EPOCH":"453","NORAD_CAT_ID":"49174","PERIOD":"91.732","TLE_LINE2":"2 49174  70.0019  68.3566 0003777 278.0170 253.3563 15.69789866  4531","GP_ID":"186199005","MEAN_MOTION_DOT":"-0.00071758"},{"INCLINATION":"70.0017","OBJECT_ID":"2021-082AX","EPHEMERIS_TYPE":"0","SITE":"AFWTR","TLE_LINE1":"1 49175U 21082AX  21277.91667824  .00035878  00000-0  30117-3 0  9997","CENTER_NAME":"EARTH","ELEMENT_SET_NO":"999","EPOCH":"2021-10-04T22:00:00.999936","DECAY_DATE":null,"OBJECT_NAME":"STARLINK-3087","MEAN_ANOMALY":"258.8618","BSTAR":"0.00030117000000","FILE":"3144803","COUNTRY_CODE":"US","REF_FRAME":"TEME","RA_OF_ASC_NODE":"68.3492","CLASSIFICATION_TYPE":"U","MEAN_MOTION":"15.69736195","ARG_OF_PERICENTER":"278.8955","MEAN_MOTION_DDOT":"0.0000000000000","OBJECT_TYPE":"PAYLOAD","MEAN_ELEMENT_THEORY":"SGP4","REV_AT_EPOCH":"362","TLE_LINE2":"2 49175  70.0017  68.3492 0003876 278.8955 258.8618 15.69736195  3624","PERIOD":"91.735","NORAD_CAT_ID":"49175","MEAN_MOTION_DOT":"0.00035878","GP_ID":"186227323","APOAPSIS":"362.265","TIME_SYSTEM":"UTC","PERIAPSIS":"357.042","LAUNCH_DATE":"2021-09-14","ECCENTRICITY":"0.00038760","RCS_SIZE":"LARGE","SEMIMAJOR_AXIS":"6737.789"},{"ARG_OF_PERICENTER":"280.8016","MEAN_MOTION":"15.69739081","CLASSIFICATION_TYPE":"U","RA_OF_ASC_NODE":"68.3387","REF_FRAME":"TEME","OBJECT_TYPE":"PAYLOAD","MEAN_MOTION_DDOT":"0.0000000000000","REV_AT_EPOCH":"336","MEAN_ELEMENT_THEORY":"SGP4","GP_ID":"186202680","MEAN_MOTION_DOT":"0.00034296","NORAD_CAT_ID":"49176","TLE_LINE2":"2 49176  70.0007  68.3387 0003529 280.8016 265.3617 15.69739081  3363","PERIOD":"91.735","TIME_SYSTEM":"UTC","APOAPSIS":"362.023","LAUNCH_DATE":"2021-09-14","PERIAPSIS":"357.268","ECCENTRICITY":"0.00035290","RCS_SIZE":"LARGE","SEMIMAJOR_AXIS":"6737.781","SITE":"AFWTR","EPHEMERIS_TYPE":"0","OBJECT_ID":"2021-082AY","INCLINATION":"70.0007","TLE_LINE1":"1 49176U 21082AY  21277.91667824  .00034296  00000-0  28801-3 0  9998","CENTER_NAME":"EARTH","ELEMENT_SET_NO":"999","EPOCH":"2021-10-04T22:00:00.999936","MEAN_ANOMALY":"265.3617","OBJECT_NAME":"STARLINK-3069","DECAY_DATE":null,"FILE":"3144739","BSTAR":"0.00028801000000","COUNTRY_CODE":"US"},{"CENTER_NAME":"EARTH","ELEMENT_SET_NO":"999","OBJECT_ID":"2021-082AZ","INCLINATION":"70.0024","EPHEMERIS_TYPE":"0","SITE":"AFWTR","TLE_LINE1":"1 49177U 21082AZ  21277.91667824  .00032903  00000-0  27650-3 0  9993","BSTAR":"0.00027650000000","FILE":"3144740","COUNTRY_CODE":"US","EPOCH":"2021-10-04T22:00:00.999936","OBJECT_NAME":"STARLINK-3103","DECAY_DATE":null,"MEAN_ANOMALY":"259.5373","REV_AT_EPOCH":"456","MEAN_ELEMENT_THEORY":"SGP4","NORAD_CAT_ID":"49177","PERIOD":"91.735","TLE_LINE2":"2 49177  70.0024  68.3475 0003504 280.2350 259.5373 15.69732529  4566","GP_ID":"186202695","MEAN_MOTION_DOT":"0.00032903","RA_OF_ASC_NODE":"68.3475","REF_FRAME":"TEME","ARG_OF_PERICENTER":"280.2350","MEAN_MOTION":"15.69732529","CLASSIFICATION_TYPE":"U","MEAN_MOTION_DDOT":"0.0000000000000","OBJECT_TYPE":"PAYLOAD","RCS_SIZE":"LARGE","SEMIMAJOR_AXIS":"6737.799","APOAPSIS":"362.025","TIME_SYSTEM":"UTC","LAUNCH_DATE":"2021-09-14","ECCENTRICITY":"0.00035040","PERIAPSIS":"357.303"}];
